0 COSMOS 2251 DEB
1 36000U 93036AWS 13282.25856487  .00001666  00000-0  55632-3 0  1839
2 36000 074.0253 147.8419 0091682 257.5425 101.5391 14.35938792215720
0 COSMOS 2251 DEB
1 36000U 93036AWS 13285.25432697  .00001652  00000-0  55189-3 0  1848
2 36000 074.0249 142.3401 0090893 250.8872 108.2518 14.35948386216154
0 COSMOS 2251 DEB
1 36000U 93036AWS 13287.27470879  .00001671  00000-0  55785-3 0  1850
2 36000 074.0247 138.6260 0091391 246.5941 112.5838 14.35955886216444
0 COSMOS 2251 DEB
1 36000U 93036AWS 13289.92208955  .00001721  00000-0  57322-3 0  1864
2 36000 074.0252 133.7613 0092655 241.7261 117.5145 14.35966774216820
0 COSMOS 2251 DEB
1 36000U 93036AWS 13291.24575847  .00001766  00000-0  58795-3 0  1874
2 36000 074.0256 131.3252 0092968 238.1339 121.1040 14.35972981217014
0 COSMOS 2251 DEB
1 36000U 93036AWS 13293.19643746  .00001843  00000-0  61241-3 0  1881
2 36000 074.0276 127.7420 0093569 233.7027 125.6206 14.35982667217290
0 COSMOS 2251 DEB
1 36000U 93036AWS 13295.84376205  .00001857  00000-0  61668-3 0  1897
2 36000 074.0275 122.8811 0093884 228.7180 130.6051 14.35993157217675
